{
"type": "FeatureCollection",
"name": "invasiones_candidatas",
"crs": { "type": "name", "properties": { "name": "urn:ogc:def:crs:OGC:1.3:CRS84" } },
"features": [
{ "type": "Feature", "properties": { "osm_id": "way/226078095", "severidad": "ambar", "building": "yes", "name": "Sol", "amenity": null, "leisure": null, "tourism": "hotel", "operator": "Four Seasons", "start_date": null, "area_total_m2": 1175.5, "area_invadida_m2": 301.6, "pct_invadido": 25.7, "pct_invadido_buf": 67.1, "lat": 20.783545, "lon": -105.529459, "tags_json": { "building": "yes", "name": "Sol", "not:brand:wikidata": "Q1424786", "operator": "Four Seasons", "tourism": "hotel", "website": "https://www.fourseasons.com/puntamita/destination/resort_map/" } }, "geometry": { "type": "Polygon", "coordinates": [ [ [ -105.5293606, 20.7837681 ], [ -105.5293042, 20.7833519 ], [ -105.5295683, 20.7833503 ], [ -105.529614, 20.7837114 ], [ -105.5293606, 20.7837681 ] ] ] } },
{ "type": "Feature", "properties": { "osm_id": "way/359188604", "severidad": "roja", "building": "hotel", "name": "El Faro Real I (tower one)", "amenity": null, "leisure": null, "tourism": "hotel", "operator": null, "start_date": null, "area_total_m2": 568.7, "area_invadida_m2": 409.3, "pct_invadido": 72.0, "pct_invadido_buf": 100.0, "lat": 20.772133, "lon": -105.514146, "tags_json": { "addr:street": "Avenida Hidalgo", "building": "hotel", "name": "El Faro Real I (tower one)", "source": "Bing", "tourism": "hotel" } }, "geometry": { "type": "Polygon", "coordinates": [ [ [ -105.5139675, 20.772095 ], [ -105.514110100000011, 20.7720636 ], [ -105.5141459, 20.7720557 ], [ -105.5142885, 20.7720243 ], [ -105.5143252, 20.77217 ], [ -105.5141826, 20.7722014 ], [ -105.5141468, 20.7722093 ], [ -105.5140042, 20.7722407 ], [ -105.5139675, 20.772095 ] ] ] } },
{ "type": "Feature", "properties": { "osm_id": "way/359188605", "severidad": "roja", "building": "hotel", "name": "El Faro Real I (tower two)", "amenity": null, "leisure": null, "tourism": "hotel", "operator": null, "start_date": null, "area_total_m2": 568.9, "area_invadida_m2": 368.3, "pct_invadido": 64.7, "pct_invadido_buf": 100.0, "lat": 20.772073, "lon": -105.51453, "tags_json": { "building": "hotel", "name": "El Faro Real I (tower two)", "tourism": "hotel" } }, "geometry": { "type": "Polygon", "coordinates": [ [ [ -105.5144979, 20.7721741 ], [ -105.5143941, 20.7721983 ], [ -105.514347200000017, 20.7720224 ], [ -105.514451, 20.7719982 ], [ -105.5144625, 20.7720411 ], [ -105.5145737, 20.772015199999988 ], [ -105.5145623, 20.7719723 ], [ -105.5146665, 20.771948 ], [ -105.5147134, 20.7721239 ], [ -105.51460920000001, 20.7721482 ], [ -105.5145974, 20.7721042 ], [ -105.5144862, 20.7721301 ], [ -105.5144979, 20.7721741 ] ] ] } },
{ "type": "Feature", "properties": { "osm_id": "way/359188606", "severidad": "ambar", "building": "hotel", "name": "El Faro Real II", "amenity": null, "leisure": null, "tourism": "hotel", "operator": null, "start_date": null, "area_total_m2": 700.4, "area_invadida_m2": 334.2, "pct_invadido": 47.7, "pct_invadido_buf": 96.3, "lat": 20.772221, "lon": -105.513758, "tags_json": { "addr:street": "Avenida Hidalgo", "building": "hotel", "man_made": "tower", "name": "El Faro Real II", "tourism": "hotel" } }, "geometry": { "type": "Polygon", "coordinates": [ [ [ -105.5139063, 20.7720979 ], [ -105.5135658, 20.7721757 ], [ -105.513609800000012, 20.7723442 ], [ -105.5139503, 20.7722664 ], [ -105.5139063, 20.7720979 ] ] ] } },
{ "type": "Feature", "properties": { "osm_id": "way/359204028", "severidad": "ambar", "building": "hotel", "name": "Hotel CINCO", "amenity": null, "leisure": null, "tourism": "hotel", "operator": null, "start_date": null, "area_total_m2": 843.4, "area_invadida_m2": 115.3, "pct_invadido": 13.7, "pct_invadido_buf": 59.8, "lat": 20.771407, "lon": -105.519901, "tags_json": { "addr:country": "MX", "addr:housenumber": "5", "addr:postcode": "63734", "addr:street": "Avenida El Anclote", "building": "hotel", "email": "info@cincopuntamita.com", "name": "Hotel CINCO", "phone": "+52 329 291 5005", "source": "Bing", "tourism": "hotel", "website": "https://cincopuntamita.com/" } }, "geometry": { "type": "Polygon", "coordinates": [ [ [ -105.5199323, 20.7715266 ], [ -105.5199201, 20.7714856 ], [ -105.5197375, 20.7715329 ], [ -105.5196867, 20.7713615 ], [ -105.5199637, 20.7712898 ], [ -105.5199569, 20.771267 ], [ -105.5200278, 20.7712486 ], [ -105.5200974, 20.7714838 ], [ -105.5199323, 20.7715266 ] ] ] } },
{ "type": "Feature", "properties": { "osm_id": "way/359204029", "severidad": "roja", "building": "commercial", "name": "Rocio", "amenity": "restaurant", "leisure": null, "tourism": null, "operator": null, "start_date": null, "area_total_m2": 191.4, "area_invadida_m2": 138.2, "pct_invadido": 72.2, "pct_invadido_buf": 100.0, "lat": 20.771441, "lon": -105.519402, "tags_json": { "amenity": "restaurant", "building": "commercial", "name": "Rocio", "source": "Bing" } }, "geometry": { "type": "Polygon", "coordinates": [ [ [ -105.5194973, 20.7715273 ], [ -105.5194381, 20.7715401 ], [ -105.5194147, 20.7714451 ], [ -105.5194231, 20.7714432 ], [ -105.5193887, 20.7714172 ], [ -105.5193919, 20.771448 ], [ -105.5192839, 20.7714578 ], [ -105.5192778, 20.7713994 ], [ -105.5193858, 20.7713896 ], [ -105.5193874, 20.771405 ], [ -105.5194065, 20.7713716 ], [ -105.5194368, 20.771366 ], [ -105.5194663, 20.7713908 ], [ -105.5194684, 20.7714017 ], [ -105.5194504, 20.7714374 ], [ -105.5194739, 20.7714323 ], [ -105.5194973, 20.7715273 ] ] ] } },
{ "type": "Feature", "properties": { "osm_id": "way/376571508", "severidad": "ambar", "building": "yes", "name": null, "amenity": null, "leisure": null, "tourism": null, "operator": null, "start_date": null, "area_total_m2": 120.1, "area_invadida_m2": 41.2, "pct_invadido": 34.3, "pct_invadido_buf": 85.0, "lat": 20.782424, "lon": -105.506415, "tags_json": { "building": "yes" } }, "geometry": { "type": "Polygon", "coordinates": [ [ [ -105.5064028, 20.7823314 ], [ -105.5064812, 20.7824948 ], [ -105.5064281, 20.7825171 ], [ -105.5063497, 20.7823536 ], [ -105.5064028, 20.7823314 ] ] ] } },
{ "type": "Feature", "properties": { "osm_id": "way/376571510", "severidad": "ambar", "building": "yes", "name": null, "amenity": null, "leisure": null, "tourism": null, "operator": null, "start_date": null, "area_total_m2": 115.0, "area_invadida_m2": 1.3, "pct_invadido": 1.1, "pct_invadido_buf": 99.5, "lat": 20.782347, "lon": -105.506714, "tags_json": { "building": "yes" } }, "geometry": { "type": "Polygon", "coordinates": [ [ [ -105.5067524, 20.7822859 ], [ -105.506788700000016, 20.7823591 ], [ -105.5066765, 20.7824078 ], [ -105.5066401, 20.7823346 ], [ -105.5067524, 20.7822859 ] ] ] } },
{ "type": "Feature", "properties": { "osm_id": "way/376583879", "severidad": "roja", "building": "yes", "name": null, "amenity": null, "leisure": null, "tourism": null, "operator": null, "start_date": null, "area_total_m2": 169.3, "area_invadida_m2": 117.5, "pct_invadido": 69.4, "pct_invadido_buf": 100.0, "lat": 20.745962, "lon": -105.328284, "tags_json": { "building": "yes", "source": "Bing" } }, "geometry": { "type": "Polygon", "coordinates": [ [ [ -105.3282818, 20.7458787 ], [ -105.3281957, 20.745957 ], [ -105.3282869, 20.7460447 ], [ -105.328373, 20.7459664 ], [ -105.3282818, 20.7458787 ] ] ] } },
{ "type": "Feature", "properties": { "osm_id": "way/376590397", "severidad": "roja", "building": "yes", "name": null, "amenity": null, "leisure": null, "tourism": null, "operator": null, "start_date": null, "area_total_m2": 285.1, "area_invadida_m2": 199.7, "pct_invadido": 70.0, "pct_invadido_buf": 100.0, "lat": 20.732873, "lon": -105.315928, "tags_json": { "building": "yes" } }, "geometry": { "type": "Polygon", "coordinates": [ [ [ -105.3159723, 20.7329719 ], [ -105.316051800000011, 20.732917 ], [ -105.3159347, 20.7327688 ], [ -105.3157997, 20.7328621 ], [ -105.3158598, 20.7329382 ], [ -105.3159153, 20.7328998 ], [ -105.3159723, 20.7329719 ] ] ] } },
{ "type": "Feature", "properties": { "osm_id": "way/376609598", "severidad": "roja", "building": "yes", "name": null, "amenity": null, "leisure": null, "tourism": null, "operator": null, "start_date": null, "area_total_m2": 280.6, "area_invadida_m2": 184.7, "pct_invadido": 65.8, "pct_invadido_buf": 99.5, "lat": 20.716169, "lon": -105.299972, "tags_json": { "building": "yes" } }, "geometry": { "type": "Polygon", "coordinates": [ [ [ -105.2999649, 20.716307 ], [ -105.2998817, 20.7162719 ], [ -105.2999756, 20.7160285 ], [ -105.3000641, 20.7160762 ], [ -105.2999649, 20.716307 ] ] ] } },
{ "type": "Feature", "properties": { "osm_id": "way/376609718", "severidad": "roja", "building": "yes", "name": null, "amenity": null, "leisure": null, "tourism": null, "operator": null, "start_date": null, "area_total_m2": 117.9, "area_invadida_m2": 88.6, "pct_invadido": 75.1, "pct_invadido_buf": 100.0, "lat": 20.716152, "lon": -105.299824, "tags_json": { "building": "yes" } }, "geometry": { "type": "Polygon", "coordinates": [ [ [ -105.2998388, 20.7162242 ], [ -105.299761, 20.7161816 ], [ -105.299801200000019, 20.7160837 ], [ -105.2998898, 20.7161188 ], [ -105.2998388, 20.7162242 ] ] ] } },
{ "type": "Feature", "properties": { "osm_id": "way/376609723", "severidad": "ambar", "building": "residential", "name": null, "amenity": null, "leisure": null, "tourism": null, "operator": null, "start_date": null, "area_total_m2": 202.3, "area_invadida_m2": 36.2, "pct_invadido": 17.9, "pct_invadido_buf": 86.1, "lat": 20.71611, "lon": -105.300292, "tags_json": { "building": "residential" } }, "geometry": { "type": "Polygon", "coordinates": [ [ [ -105.3003028, 20.7162066 ], [ -105.3002572, 20.7161891 ], [ -105.3002331, 20.7162217 ], [ -105.3002089, 20.7162016 ], [ -105.3002948, 20.7159959 ], [ -105.3003699, 20.716036 ], [ -105.3003028, 20.7162066 ] ] ] } },
{ "type": "Feature", "properties": { "osm_id": "way/376609851", "severidad": "roja", "building": "yes", "name": "Pool", "amenity": null, "leisure": null, "tourism": null, "operator": null, "start_date": null, "area_total_m2": 39.5, "area_invadida_m2": 39.5, "pct_invadido": 100.0, "pct_invadido_buf": 100.0, "lat": 20.716033, "lon": -105.299917, "tags_json": { "building": "yes", "name": "Pool" } }, "geometry": { "type": "Polygon", "coordinates": [ [ [ -105.2999085, 20.7160887 ], [ -105.2999541, 20.7159934 ], [ -105.2999166, 20.7159809 ], [ -105.2999058, 20.7160185 ], [ -105.2998817, 20.7160762 ], [ -105.2999085, 20.7160887 ] ] ] } },
{ "type": "Feature", "properties": { "osm_id": "way/376614070", "severidad": "roja", "building": "yes", "name": null, "amenity": null, "leisure": null, "tourism": null, "operator": null, "start_date": null, "area_total_m2": 161.6, "area_invadida_m2": 92.5, "pct_invadido": 57.2, "pct_invadido_buf": 100.0, "lat": 20.814192, "lon": -105.477263, "tags_json": { "building": "yes" } }, "geometry": { "type": "Polygon", "coordinates": [ [ [ -105.4772109, 20.8142634 ], [ -105.4771577, 20.8141891 ], [ -105.477194900000015, 20.8141658 ], [ -105.4772102, 20.8141873 ], [ -105.4772479, 20.8141638 ], [ -105.4772732, 20.814148 ], [ -105.4772582, 20.8141269 ], [ -105.4772907, 20.8141066 ], [ -105.4773679, 20.8142144 ], [ -105.4773399, 20.8142319 ], [ -105.4773221, 20.8142071 ], [ -105.477295, 20.814224 ], [ -105.4772886, 20.8142149 ], [ -105.4772109, 20.8142634 ] ] ] } },
{ "type": "Feature", "properties": { "osm_id": "way/376614079", "severidad": "roja", "building": "yes", "name": null, "amenity": null, "leisure": null, "tourism": null, "operator": null, "start_date": null, "area_total_m2": 37.0, "area_invadida_m2": 37.0, "pct_invadido": 100.0, "pct_invadido_buf": 100.0, "lat": 20.812461, "lon": -105.478581, "tags_json": { "building": "yes" } }, "geometry": { "type": "Polygon", "coordinates": [ [ [ -105.4785868, 20.8124989 ], [ -105.478539900000015, 20.8124679 ], [ -105.4785744, 20.8124222 ], [ -105.4786214, 20.8124532 ], [ -105.4785868, 20.8124989 ] ] ] } },
{ "type": "Feature", "properties": { "osm_id": "way/376614087", "severidad": "ambar", "building": "yes", "name": null, "amenity": null, "leisure": null, "tourism": null, "operator": null, "start_date": null, "area_total_m2": 107.0, "area_invadida_m2": 0.0, "pct_invadido": 0.0, "pct_invadido_buf": 100.0, "lat": 20.815198, "lon": -105.476711, "tags_json": { "building": "yes" } }, "geometry": { "type": "Polygon", "coordinates": [ [ [ -105.4767282, 20.8152664 ], [ -105.476655, 20.8152445 ], [ -105.4766945, 20.8151294 ], [ -105.476767700000011, 20.8151514 ], [ -105.4767282, 20.8152664 ] ] ] } },
{ "type": "Feature", "properties": { "osm_id": "way/376614089", "severidad": "roja", "building": "yes", "name": null, "amenity": null, "leisure": null, "tourism": null, "operator": null, "start_date": null, "area_total_m2": 91.9, "area_invadida_m2": 58.7, "pct_invadido": 63.9, "pct_invadido_buf": 100.0, "lat": 20.814382, "lon": -105.477125, "tags_json": { "building": "yes" } }, "geometry": { "type": "Polygon", "coordinates": [ [ [ -105.4771209, 20.8144531 ], [ -105.477071900000013, 20.8143307 ], [ -105.4771291, 20.8143107 ], [ -105.4771781, 20.8144331 ], [ -105.4771209, 20.8144531 ] ] ] } },
{ "type": "Feature", "properties": { "osm_id": "way/376614093", "severidad": "roja", "building": "yes", "name": null, "amenity": null, "leisure": null, "tourism": null, "operator": null, "start_date": null, "area_total_m2": 30.3, "area_invadida_m2": 30.3, "pct_invadido": 100.0, "pct_invadido_buf": 100.0, "lat": 20.81732, "lon": -105.476198, "tags_json": { "building": "yes" } }, "geometry": { "type": "Polygon", "coordinates": [ [ [ -105.476225, 20.8173451 ], [ -105.4761795, 20.8173546 ], [ -105.4761707, 20.8173177 ], [ -105.4761868, 20.8173143 ], [ -105.4761801, 20.817286 ], [ -105.4762094, 20.8172799 ], [ -105.476225, 20.8173451 ] ] ] } },
{ "type": "Feature", "properties": { "osm_id": "way/376614094", "severidad": "ambar", "building": "yes", "name": null, "amenity": null, "leisure": null, "tourism": null, "operator": null, "start_date": null, "area_total_m2": 232.0, "area_invadida_m2": 44.9, "pct_invadido": 19.4, "pct_invadido_buf": 97.7, "lat": 20.813216, "lon": -105.478138, "tags_json": { "building": "yes" } }, "geometry": { "type": "Polygon", "coordinates": [ [ [ -105.4781638, 20.8133242 ], [ -105.4780324, 20.8131778 ], [ -105.4781016, 20.8131236 ], [ -105.4781258, 20.8131506 ], [ -105.478152, 20.8131301 ], [ -105.4782145, 20.813199699999988 ], [ -105.4781859, 20.8132222 ], [ -105.4782305, 20.8132719 ], [ -105.4781638, 20.8133242 ] ] ] } },
{ "type": "Feature", "properties": { "osm_id": "way/376615188", "severidad": "ambar", "building": "commercial", "name": null, "amenity": null, "leisure": null, "tourism": null, "operator": null, "start_date": null, "area_total_m2": 917.0, "area_invadida_m2": 96.5, "pct_invadido": 10.5, "pct_invadido_buf": 37.7, "lat": 20.762254, "lon": -105.356043, "tags_json": { "building": "commercial" } }, "geometry": { "type": "Polygon", "coordinates": [ [ [ -105.3562427, 20.7622069 ], [ -105.3562317, 20.7623415 ], [ -105.3560311, 20.7623343 ], [ -105.3560243, 20.7624388 ], [ -105.3559304, 20.7624681 ], [ -105.3558948, 20.7623929 ], [ -105.3559117, 20.7623882 ], [ -105.355888900000011, 20.7623003 ], [ -105.3559464, 20.7622876 ], [ -105.3559168, 20.7622014 ], [ -105.355938, 20.7621958 ], [ -105.3559481, 20.7620779 ], [ -105.3559659, 20.7620542 ], [ -105.3560336, 20.7620629 ], [ -105.3561098, 20.7620732 ], [ -105.3560979, 20.7621935 ], [ -105.3562427, 20.7622069 ] ] ] } },
{ "type": "Feature", "properties": { "osm_id": "way/376615823", "severidad": "ambar", "building": "house", "name": null, "amenity": null, "leisure": null, "tourism": null, "operator": null, "start_date": null, "area_total_m2": 423.1, "area_invadida_m2": 43.9, "pct_invadido": 10.4, "pct_invadido_buf": 55.0, "lat": 20.761753, "lon": -105.353242, "tags_json": { "building": "house" } }, "geometry": { "type": "Polygon", "coordinates": [ [ [ -105.3533396, 20.7619064 ], [ -105.3532924, 20.7618879 ], [ -105.3533076, 20.7618451 ], [ -105.3531217, 20.7618095 ], [ -105.353169, 20.76163 ], [ -105.3533213, 20.7616628 ], [ -105.353310600000015, 20.7617112 ], [ -105.3533411, 20.7617184 ], [ -105.3533198, 20.7618081 ], [ -105.35335480000002, 20.7618394 ], [ -105.3533396, 20.7619064 ] ] ] } },
{ "type": "Feature", "properties": { "osm_id": "way/376617480", "severidad": "ambar", "building": "yes", "name": null, "amenity": null, "leisure": null, "tourism": null, "operator": null, "start_date": null, "area_total_m2": 110.2, "area_invadida_m2": 51.1, "pct_invadido": 46.4, "pct_invadido_buf": 100.0, "lat": 20.841843, "lon": -105.463711, "tags_json": { "building": "yes" } }, "geometry": { "type": "Polygon", "coordinates": [ [ [ -105.4637881, 20.8418403 ], [ -105.4637513, 20.8419038 ], [ -105.463634700000014, 20.8418447 ], [ -105.4636715, 20.8417813 ], [ -105.4637881, 20.8418403 ] ] ] } },
{ "type": "Feature", "properties": { "osm_id": "way/376617525", "severidad": "roja", "building": "yes", "name": null, "amenity": null, "leisure": null, "tourism": null, "operator": null, "start_date": null, "area_total_m2": 102.2, "area_invadida_m2": 102.2, "pct_invadido": 100.0, "pct_invadido_buf": 100.0, "lat": 20.843163, "lon": -105.463728, "tags_json": { "building": "yes" } }, "geometry": { "type": "Polygon", "coordinates": [ [ [ -105.4637857, 20.8432025 ], [ -105.4637099, 20.8432273 ], [ -105.4636708, 20.843123 ], [ -105.4637466, 20.8430982 ], [ -105.4637857, 20.8432025 ] ] ] } },
{ "type": "Feature", "properties": { "osm_id": "way/376617553", "severidad": "roja", "building": "yes", "name": null, "amenity": null, "leisure": null, "tourism": null, "operator": null, "start_date": null, "area_total_m2": 77.3, "area_invadida_m2": 77.3, "pct_invadido": 100.0, "pct_invadido_buf": 100.0, "lat": 20.845842, "lon": -105.461545, "tags_json": { "building": "yes" } }, "geometry": { "type": "Polygon", "coordinates": [ [ [ -105.4615925, 20.8458057 ], [ -105.461598, 20.8458719 ], [ -105.461497200000011, 20.8458793 ], [ -105.461491600000016, 20.8458131 ], [ -105.4615925, 20.8458057 ] ] ] } },
{ "type": "Feature", "properties": { "osm_id": "way/376617574", "severidad": "ambar", "building": "yes", "name": null, "amenity": null, "leisure": null, "tourism": null, "operator": null, "start_date": null, "area_total_m2": 111.7, "area_invadida_m2": 11.5, "pct_invadido": 10.3, "pct_invadido_buf": 100.0, "lat": 20.843229, "lon": -105.463496, "tags_json": { "building": "yes" } }, "geometry": { "type": "Polygon", "coordinates": [ [ [ -105.4635823, 20.8432333 ], [ -105.463556, 20.8431725 ], [ -105.4634099, 20.8432277 ], [ -105.4634365, 20.8432892 ], [ -105.4634771, 20.8432739 ], [ -105.4634714, 20.8432607 ], [ -105.4635173, 20.8432433 ], [ -105.4635227, 20.8432559 ], [ -105.4635823, 20.8432333 ] ] ] } },
{ "type": "Feature", "properties": { "osm_id": "way/376622011", "severidad": "ambar", "building": "yes", "name": "Litibu Grill", "amenity": "restaurant", "leisure": null, "tourism": null, "operator": null, "start_date": null, "area_total_m2": 106.9, "area_invadida_m2": 34.2, "pct_invadido": 32.0, "pct_invadido_buf": 100.0, "lat": 20.804164, "lon": -105.482275, "tags_json": { "amenity": "restaurant", "building": "yes", "description": "También un club de playa y boutique", "name": "Litibu Grill" } }, "geometry": { "type": "Polygon", "coordinates": [ [ [ -105.4822797, 20.8040949 ], [ -105.482344, 20.8041391 ], [ -105.48227030000001, 20.8042328 ], [ -105.482206, 20.8041886 ], [ -105.4822797, 20.8040949 ] ] ] } },
{ "type": "Feature", "properties": { "osm_id": "way/376623880", "severidad": "ambar", "building": "yes", "name": null, "amenity": null, "leisure": null, "tourism": null, "operator": null, "start_date": null, "area_total_m2": 755.6, "area_invadida_m2": 197.4, "pct_invadido": 26.1, "pct_invadido_buf": 55.5, "lat": 20.748626, "lon": -105.444974, "tags_json": { "building": "yes" } }, "geometry": { "type": "Polygon", "coordinates": [ [ [ -105.4451618, 20.7486378 ], [ -105.4450863, 20.7484678 ], [ -105.4447828, 20.7486003 ], [ -105.4448783, 20.7487933 ], [ -105.4451618, 20.7486378 ] ] ] } },
{ "type": "Feature", "properties": { "osm_id": "way/376627175", "severidad": "ambar", "building": "yes", "name": null, "amenity": null, "leisure": null, "tourism": null, "operator": null, "start_date": null, "area_total_m2": 49.8, "area_invadida_m2": 22.9, "pct_invadido": 46.0, "pct_invadido_buf": 100.0, "lat": 20.745613, "lon": -105.327892, "tags_json": { "building": "yes" } }, "geometry": { "type": "Polygon", "coordinates": [ [ [ -105.3279079, 20.7456583 ], [ -105.3278416, 20.7456043 ], [ -105.3278761, 20.7455672 ], [ -105.327942300000018, 20.7456212 ], [ -105.3279079, 20.7456583 ] ] ] } },
{ "type": "Feature", "properties": { "osm_id": "way/376676300", "severidad": "roja", "building": "yes", "name": null, "amenity": null, "leisure": null, "tourism": null, "operator": null, "start_date": null, "area_total_m2": 41.3, "area_invadida_m2": 41.3, "pct_invadido": 100.0, "pct_invadido_buf": 100.0, "lat": 20.775311, "lon": -105.534459, "tags_json": { "building": "yes" } }, "geometry": { "type": "Polygon", "coordinates": [ [ [ -105.5344566, 20.7753539 ], [ -105.5344164, 20.7753278 ], [ -105.534461, 20.7752676 ], [ -105.5345012, 20.7752936 ], [ -105.5344566, 20.7753539 ] ] ] } },
{ "type": "Feature", "properties": { "osm_id": "way/376701616", "severidad": "ambar", "building": "yes", "name": "Hotel Basalto", "amenity": null, "leisure": null, "tourism": "hotel", "operator": null, "start_date": null, "area_total_m2": 532.8, "area_invadida_m2": 107.5, "pct_invadido": 20.2, "pct_invadido_buf": 46.7, "lat": 20.787355, "lon": -105.497784, "tags_json": { "building": "yes", "name": "Hotel Basalto", "tourism": "hotel" } }, "geometry": { "type": "Polygon", "coordinates": [ [ [ -105.4978371, 20.7873185 ], [ -105.497949, 20.7874588 ], [ -105.4978344, 20.78753 ], [ -105.4976222, 20.78725 ], [ -105.497730100000012, 20.7871782 ], [ -105.4978371, 20.7873185 ] ] ] } },
{ "type": "Feature", "properties": { "osm_id": "way/376701632", "severidad": "ambar", "building": "yes", "name": null, "amenity": null, "leisure": null, "tourism": null, "operator": null, "start_date": null, "area_total_m2": 50.9, "area_invadida_m2": 3.0, "pct_invadido": 5.9, "pct_invadido_buf": 97.4, "lat": 20.784119, "lon": -105.502079, "tags_json": { "building": "yes" } }, "geometry": { "type": "Polygon", "coordinates": [ [ [ -105.5021246, 20.784151 ], [ -105.5020859, 20.7841719 ], [ -105.5020332, 20.7840862 ], [ -105.502072, 20.7840654 ], [ -105.5021246, 20.784151 ] ] ] } },
{ "type": "Feature", "properties": { "osm_id": "way/376701688", "severidad": "roja", "building": "yes", "name": null, "amenity": null, "leisure": null, "tourism": null, "operator": null, "start_date": null, "area_total_m2": 54.4, "area_invadida_m2": 54.4, "pct_invadido": 100.0, "pct_invadido_buf": 100.0, "lat": 20.788015, "lon": -105.496978, "tags_json": { "building": "yes" } }, "geometry": { "type": "Polygon", "coordinates": [ [ [ -105.4969982, 20.7880577 ], [ -105.4969312, 20.7880326 ], [ -105.4969572, 20.7879719 ], [ -105.4970242, 20.787997 ], [ -105.4969982, 20.7880577 ] ] ] } },
{ "type": "Feature", "properties": { "osm_id": "way/376701704", "severidad": "roja", "building": "yes", "name": null, "amenity": null, "leisure": null, "tourism": null, "operator": null, "start_date": null, "area_total_m2": 51.5, "area_invadida_m2": 38.3, "pct_invadido": 74.4, "pct_invadido_buf": 100.0, "lat": 20.783295, "lon": -105.504328, "tags_json": { "building": "yes" } }, "geometry": { "type": "Polygon", "coordinates": [ [ [ -105.5043705, 20.7833371 ], [ -105.5043337, 20.7833528 ], [ -105.5042846, 20.7832524 ], [ -105.5043214, 20.7832366 ], [ -105.5043705, 20.7833371 ] ] ] } },
{ "type": "Feature", "properties": { "osm_id": "way/376701710", "severidad": "roja", "building": "yes", "name": null, "amenity": null, "leisure": null, "tourism": null, "operator": null, "start_date": null, "area_total_m2": 224.0, "area_invadida_m2": 150.3, "pct_invadido": 67.1, "pct_invadido_buf": 100.0, "lat": 20.787882, "lon": -105.496927, "tags_json": { "building": "yes" } }, "geometry": { "type": "Polygon", "coordinates": [ [ [ -105.4969881, 20.7879599 ], [ -105.496859, 20.787955 ], [ -105.4968655, 20.7878046 ], [ -105.4969946, 20.7878095 ], [ -105.4969881, 20.7879599 ] ] ] } },
{ "type": "Feature", "properties": { "osm_id": "way/376701711", "severidad": "ambar", "building": "yes", "name": null, "amenity": null, "leisure": null, "tourism": null, "operator": null, "start_date": null, "area_total_m2": 198.3, "area_invadida_m2": 32.5, "pct_invadido": 16.4, "pct_invadido_buf": 93.2, "lat": 20.782, "lon": -105.508001, "tags_json": { "building": "yes" } }, "geometry": { "type": "Polygon", "coordinates": [ [ [ -105.508049, 20.7820927 ], [ -105.5079572, 20.7820943 ], [ -105.5079536, 20.7819068 ], [ -105.5080454, 20.7819053 ], [ -105.508049, 20.7820927 ] ] ] } },
{ "type": "Feature", "properties": { "osm_id": "way/376701713", "severidad": "roja", "building": "yes", "name": null, "amenity": null, "leisure": null, "tourism": null, "operator": null, "start_date": null, "area_total_m2": 71.2, "area_invadida_m2": 51.4, "pct_invadido": 72.2, "pct_invadido_buf": 100.0, "lat": 20.783309, "lon": -105.504255, "tags_json": { "building": "yes" } }, "geometry": { "type": "Polygon", "coordinates": [ [ [ -105.5043085, 20.7833297 ], [ -105.5042343, 20.7833588 ], [ -105.5042025, 20.783288 ], [ -105.5042767, 20.7832589 ], [ -105.5043085, 20.7833297 ] ] ] } },
{ "type": "Feature", "properties": { "osm_id": "way/376701716", "severidad": "roja", "building": "yes", "name": null, "amenity": null, "leisure": null, "tourism": null, "operator": null, "start_date": null, "area_total_m2": 37.9, "area_invadida_m2": 37.9, "pct_invadido": 100.0, "pct_invadido_buf": 100.0, "lat": 20.782244, "lon": -105.507939, "tags_json": { "building": "yes" } }, "geometry": { "type": "Polygon", "coordinates": [ [ [ -105.5079552, 20.7822897 ], [ -105.5079186, 20.7822879 ], [ -105.5079237, 20.7821982 ], [ -105.5079603, 20.7822 ], [ -105.5079552, 20.7822897 ] ] ] } },
{ "type": "Feature", "properties": { "osm_id": "way/376701721", "severidad": "roja", "building": "yes", "name": null, "amenity": null, "leisure": null, "tourism": null, "operator": null, "start_date": null, "area_total_m2": 37.7, "area_invadida_m2": 37.7, "pct_invadido": 100.0, "pct_invadido_buf": 100.0, "lat": 20.782247, "lon": -105.508012, "tags_json": { "building": "yes" } }, "geometry": { "type": "Polygon", "coordinates": [ [ [ -105.5080367, 20.7822836 ], [ -105.5079932, 20.7822862 ], [ -105.5079881, 20.7822113 ], [ -105.5080317, 20.7822087 ], [ -105.5080367, 20.7822836 ] ] ] } },
{ "type": "Feature", "properties": { "osm_id": "way/376701724", "severidad": "ambar", "building": "yes", "name": null, "amenity": null, "leisure": null, "tourism": null, "operator": null, "start_date": null, "area_total_m2": 50.6, "area_invadida_m2": 0.0, "pct_invadido": 0.0, "pct_invadido_buf": 98.6, "lat": 20.759219, "lon": -105.484044, "tags_json": { "building": "yes" } }, "geometry": { "type": "Polygon", "coordinates": [ [ [ -105.4840459, 20.7592659 ], [ -105.4839986, 20.7592396 ], [ -105.4840423, 20.7591711 ], [ -105.4840896, 20.7591975 ], [ -105.4840459, 20.7592659 ] ] ] } },
{ "type": "Feature", "properties": { "osm_id": "way/376701744", "severidad": "roja", "building": "yes", "name": null, "amenity": null, "leisure": null, "tourism": null, "operator": null, "start_date": null, "area_total_m2": 168.8, "area_invadida_m2": 129.8, "pct_invadido": 76.9, "pct_invadido_buf": 100.0, "lat": 20.758862, "lon": -105.484652, "tags_json": { "building": "yes" } }, "geometry": { "type": "Polygon", "coordinates": [ [ [ -105.4846604, 20.7589528 ], [ -105.4845872, 20.7589173 ], [ -105.484616, 20.7588655 ], [ -105.4845864, 20.7588511 ], [ -105.4846283, 20.7587757 ], [ -105.4847311, 20.7588257 ], [ -105.4846604, 20.7589528 ] ] ] } },
{ "type": "Feature", "properties": { "osm_id": "way/376709561", "severidad": "ambar", "building": "yes", "name": null, "amenity": null, "leisure": null, "tourism": null, "operator": null, "start_date": null, "area_total_m2": 1190.8, "area_invadida_m2": 460.8, "pct_invadido": 38.7, "pct_invadido_buf": 90.0, "lat": 20.746625, "lon": -105.43041, "tags_json": { "building": "yes" } }, "geometry": { "type": "Polygon", "coordinates": [ [ [ -105.4304675, 20.7468386 ], [ -105.430183, 20.7466831 ], [ -105.4303522, 20.7464123 ], [ -105.4306367, 20.7465678 ], [ -105.4304675, 20.7468386 ] ] ] } },
{ "type": "Feature", "properties": { "osm_id": "way/376710323", "severidad": "roja", "building": "yes", "name": null, "amenity": null, "leisure": null, "tourism": null, "operator": null, "start_date": null, "area_total_m2": 694.9, "area_invadida_m2": 382.8, "pct_invadido": 55.1, "pct_invadido_buf": 98.9, "lat": 20.744409, "lon": -105.427063, "tags_json": { "building": "yes" } }, "geometry": { "type": "Polygon", "coordinates": [ [ [ -105.4272534, 20.7444565 ], [ -105.4271262, 20.7445832 ], [ -105.4268733, 20.744361 ], [ -105.4270006, 20.7442343 ], [ -105.4272534, 20.7444565 ] ] ] } },
{ "type": "Feature", "properties": { "osm_id": "way/376710333", "severidad": "ambar", "building": "yes", "name": null, "amenity": null, "leisure": null, "tourism": null, "operator": null, "start_date": null, "area_total_m2": 526.2, "area_invadida_m2": 85.1, "pct_invadido": 16.2, "pct_invadido_buf": 63.8, "lat": 20.744658, "lon": -105.427216, "tags_json": { "building": "yes" } }, "geometry": { "type": "Polygon", "coordinates": [ [ [ -105.4273636, 20.7447254 ], [ -105.4270883, 20.744755 ], [ -105.4270682, 20.7445912 ], [ -105.4273435, 20.7445617 ], [ -105.4273636, 20.7447254 ] ] ] } },
{ "type": "Feature", "properties": { "osm_id": "way/376732311", "severidad": "roja", "building": "yes", "name": null, "amenity": null, "leisure": null, "tourism": null, "operator": null, "start_date": null, "area_total_m2": 104.7, "area_invadida_m2": 104.7, "pct_invadido": 100.0, "pct_invadido_buf": 100.0, "lat": 20.778006, "lon": -105.532193, "tags_json": { "building": "yes" } }, "geometry": { "type": "Polygon", "coordinates": [ [ [ -105.532262700000018, 20.7779953 ], [ -105.5321544, 20.7779469 ], [ -105.5321231, 20.7780168 ], [ -105.5322314, 20.7780653 ], [ -105.532262700000018, 20.7779953 ] ] ] } },
{ "type": "Feature", "properties": { "osm_id": "way/376732663", "severidad": "roja", "building": "residential", "name": null, "amenity": null, "leisure": null, "tourism": null, "operator": null, "start_date": null, "area_total_m2": 166.7, "area_invadida_m2": 166.7, "pct_invadido": 100.0, "pct_invadido_buf": 100.0, "lat": 20.756642, "lon": -105.36962, "tags_json": { "building": "residential" } }, "geometry": { "type": "Polygon", "coordinates": [ [ [ -105.369707100000014, 20.7566515 ], [ -105.3696242, 20.7565593 ], [ -105.369532300000017, 20.7566317 ], [ -105.3696152, 20.7567238 ], [ -105.369707100000014, 20.7566515 ] ] ] } },
{ "type": "Feature", "properties": { "osm_id": "way/376732664", "severidad": "roja", "building": "residential", "name": null, "amenity": null, "leisure": null, "tourism": null, "operator": null, "start_date": null, "area_total_m2": 277.9, "area_invadida_m2": 219.6, "pct_invadido": 79.0, "pct_invadido_buf": 100.0, "lat": 20.757225, "lon": -105.368698, "tags_json": { "building": "residential" } }, "geometry": { "type": "Polygon", "coordinates": [ [ [ -105.3688091, 20.7572481 ], [ -105.3687264, 20.757122 ], [ -105.3685874, 20.7572018 ], [ -105.36867, 20.7573278 ], [ -105.3688091, 20.7572481 ] ] ] } },
{ "type": "Feature", "properties": { "osm_id": "way/376732666", "severidad": "roja", "building": "residential", "name": null, "amenity": null, "leisure": null, "tourism": null, "operator": null, "start_date": null, "area_total_m2": 257.4, "area_invadida_m2": 142.8, "pct_invadido": 55.5, "pct_invadido_buf": 100.0, "lat": 20.757119, "lon": -105.368974, "tags_json": { "building": "residential" } }, "geometry": { "type": "Polygon", "coordinates": [ [ [ -105.3690679, 20.7571296 ], [ -105.3689619, 20.7569881 ], [ -105.3688893, 20.7571296 ], [ -105.3689707, 20.7572383 ], [ -105.3690679, 20.7571296 ] ] ] } },
{ "type": "Feature", "properties": { "osm_id": "way/376732684", "severidad": "ambar", "building": "yes", "name": null, "amenity": null, "leisure": null, "tourism": null, "operator": null, "start_date": null, "area_total_m2": 1044.0, "area_invadida_m2": 504.0, "pct_invadido": 48.3, "pct_invadido_buf": 77.8, "lat": 20.778136, "lon": -105.53165, "tags_json": { "building": "yes" } }, "geometry": { "type": "Polygon", "coordinates": [ [ [ -105.5318674, 20.7781308 ], [ -105.5317145, 20.7782499 ], [ -105.5317297, 20.7782693 ], [ -105.5316444, 20.7783357 ], [ -105.5316243, 20.7783099 ], [ -105.5315885, 20.7783378 ], [ -105.5314712, 20.7781871 ], [ -105.531533, 20.7781389 ], [ -105.531507600000012, 20.7781063 ], [ -105.5314502, 20.778151 ], [ -105.5314108, 20.7781005 ], [ -105.531519, 20.7780163 ], [ -105.531583600000019, 20.7780992 ], [ -105.5316886, 20.7780175 ], [ -105.531622, 20.7779319 ], [ -105.5316783, 20.7778881 ], [ -105.5318236, 20.7780746 ], [ -105.5318674, 20.7781308 ] ] ] } },
{ "type": "Feature", "properties": { "osm_id": "way/376733443", "severidad": "roja", "building": "yes", "name": "Estrella", "amenity": null, "leisure": null, "tourism": null, "operator": null, "start_date": null, "area_total_m2": 829.8, "area_invadida_m2": 487.1, "pct_invadido": 58.7, "pct_invadido_buf": 94.6, "lat": 20.783118, "lon": -105.529548, "tags_json": { "building": "yes", "name": "Estrella" } }, "geometry": { "type": "Polygon", "coordinates": [ [ [ -105.5296493, 20.7829304 ], [ -105.5296332, 20.7833147 ], [ -105.5294483, 20.7833097 ], [ -105.5294628, 20.7829195 ], [ -105.5296493, 20.7829304 ] ] ] } },
{ "type": "Feature", "properties": { "osm_id": "way/376735381", "severidad": "roja", "building": "residential", "name": null, "amenity": null, "leisure": null, "tourism": null, "operator": null, "start_date": null, "area_total_m2": 210.8, "area_invadida_m2": 173.9, "pct_invadido": 82.5, "pct_invadido_buf": 100.0, "lat": 20.757804, "lon": -105.367169, "tags_json": { "building": "residential" } }, "geometry": { "type": "Polygon", "coordinates": [ [ [ -105.3672619, 20.7578352 ], [ -105.3672001, 20.7577163 ], [ -105.3670756, 20.7577729 ], [ -105.3671373, 20.7578917 ], [ -105.3672619, 20.7578352 ] ] ] } },
{ "type": "Feature", "properties": { "osm_id": "way/376735382", "severidad": "roja", "building": "residential", "name": null, "amenity": null, "leisure": null, "tourism": null, "operator": null, "start_date": null, "area_total_m2": 319.7, "area_invadida_m2": 257.4, "pct_invadido": 80.5, "pct_invadido_buf": 100.0, "lat": 20.758093, "lon": -105.367323, "tags_json": { "building": "residential" } }, "geometry": { "type": "Polygon", "coordinates": [ [ [ -105.367436, 20.7581364 ], [ -105.3673503, 20.7579811 ], [ -105.3672092, 20.7580492 ], [ -105.3672948, 20.7582045 ], [ -105.367436, 20.7581364 ] ] ] } },
{ "type": "Feature", "properties": { "osm_id": "way/376735384", "severidad": "ambar", "building": "residential", "name": null, "amenity": null, "leisure": null, "tourism": null, "operator": null, "start_date": null, "area_total_m2": 1478.7, "area_invadida_m2": 616.3, "pct_invadido": 41.7, "pct_invadido_buf": 81.3, "lat": 20.758672, "lon": -105.366239, "tags_json": { "building": "residential" } }, "geometry": { "type": "Polygon", "coordinates": [ [ [ -105.36620210000001, 20.7589486 ], [ -105.3664872, 20.7585087 ], [ -105.366287700000015, 20.7583821 ], [ -105.3659825, 20.7588498 ], [ -105.36620210000001, 20.7589486 ] ] ] } },
{ "type": "Feature", "properties": { "osm_id": "way/376735386", "severidad": "ambar", "building": "residential", "name": null, "amenity": null, "leisure": null, "tourism": null, "operator": null, "start_date": null, "area_total_m2": 286.7, "area_invadida_m2": 40.5, "pct_invadido": 14.1, "pct_invadido_buf": 62.6, "lat": 20.759016, "lon": -105.366108, "tags_json": { "building": "residential" } }, "geometry": { "type": "Polygon", "coordinates": [ [ [ -105.3661765, 20.7591085 ], [ -105.3662253, 20.7589917 ], [ -105.3660405, 20.7589241 ], [ -105.3659917, 20.759041 ], [ -105.3661765, 20.7591085 ] ] ] } },
{ "type": "Feature", "properties": { "osm_id": "way/376735388", "severidad": "ambar", "building": "residential", "name": null, "amenity": null, "leisure": null, "tourism": null, "operator": null, "start_date": null, "area_total_m2": 311.6, "area_invadida_m2": 36.2, "pct_invadido": 11.6, "pct_invadido_buf": 59.3, "lat": 20.760337, "lon": -105.365875, "tags_json": { "building": "residential" } }, "geometry": { "type": "Polygon", "coordinates": [ [ [ -105.3659617, 20.7604197 ], [ -105.3659875, 20.7602884 ], [ -105.365787400000016, 20.7602541 ], [ -105.3657617, 20.7603854 ], [ -105.3658507, 20.7603996 ], [ -105.3659617, 20.7604197 ] ] ] } },
{ "type": "Feature", "properties": { "osm_id": "way/376735391", "severidad": "ambar", "building": "residential", "name": null, "amenity": null, "leisure": null, "tourism": null, "operator": null, "start_date": null, "area_total_m2": 362.1, "area_invadida_m2": 103.5, "pct_invadido": 28.6, "pct_invadido_buf": 74.9, "lat": 20.760109, "lon": -105.365902, "tags_json": { "building": "residential" } }, "geometry": { "type": "Polygon", "coordinates": [ [ [ -105.3659906, 20.7602002 ], [ -105.3660196, 20.7600534 ], [ -105.3658125, 20.7600176 ], [ -105.3657836, 20.7601644 ], [ -105.3659906, 20.7602002 ] ] ] } },
{ "type": "Feature", "properties": { "osm_id": "way/376735410", "severidad": "roja", "building": "residential", "name": null, "amenity": null, "leisure": null, "tourism": null, "operator": null, "start_date": null, "area_total_m2": 966.4, "area_invadida_m2": 554.8, "pct_invadido": 57.4, "pct_invadido_buf": 91.8, "lat": 20.762497, "lon": -105.363552, "tags_json": { "building": "residential" } }, "geometry": { "type": "Polygon", "coordinates": [ [ [ -105.3637297, 20.7626097 ], [ -105.3636296, 20.7623095 ], [ -105.3633749, 20.7623837 ], [ -105.363475, 20.7626839 ], [ -105.3637297, 20.7626097 ] ] ] } },
{ "type": "Feature", "properties": { "osm_id": "way/376735468", "severidad": "ambar", "building": "yes", "name": null, "amenity": null, "leisure": null, "tourism": null, "operator": null, "start_date": null, "area_total_m2": 563.1, "area_invadida_m2": 146.6, "pct_invadido": 26.0, "pct_invadido_buf": 83.1, "lat": 20.741958, "lon": -105.422124, "tags_json": { "building": "yes" } }, "geometry": { "type": "Polygon", "coordinates": [ [ [ -105.4222953, 20.7419881 ], [ -105.4221846, 20.7421111 ], [ -105.421952, 20.7419279 ], [ -105.42206280000002, 20.741805 ], [ -105.4222953, 20.7419881 ] ] ] } },
{ "type": "Feature", "properties": { "osm_id": "way/376735472", "severidad": "roja", "building": "yes", "name": null, "amenity": null, "leisure": null, "tourism": null, "operator": null, "start_date": null, "area_total_m2": 200.3, "area_invadida_m2": 140.0, "pct_invadido": 69.9, "pct_invadido_buf": 100.0, "lat": 20.741776, "lon": -105.421916, "tags_json": { "building": "yes" } }, "geometry": { "type": "Polygon", "coordinates": [ [ [ -105.4219567, 20.7418584 ], [ -105.4218229, 20.7418002 ], [ -105.4218759, 20.7416934 ], [ -105.4220098, 20.7417515 ], [ -105.4219567, 20.7418584 ] ] ] } },
{ "type": "Feature", "properties": { "osm_id": "way/376740284", "severidad": "roja", "building": "yes", "name": null, "amenity": null, "leisure": null, "tourism": null, "operator": null, "start_date": null, "area_total_m2": 178.7, "area_invadida_m2": 97.3, "pct_invadido": 54.4, "pct_invadido_buf": 100.0, "lat": 20.745344, "lon": -105.385564, "tags_json": { "building": "yes" } }, "geometry": { "type": "Polygon", "coordinates": [ [ [ -105.3856224, 20.7453002 ], [ -105.3856382, 20.7453367 ], [ -105.3856304, 20.7453754 ], [ -105.3856014, 20.7454039 ], [ -105.3855606, 20.7454133 ], [ -105.3855207, 20.7454006 ], [ -105.3854946, 20.7453697 ], [ -105.3854905, 20.7453306 ], [ -105.3855097, 20.7452955 ], [ -105.385546, 20.7452757 ], [ -105.3855881, 20.7452775 ], [ -105.3856224, 20.7453002 ] ] ] } },
{ "type": "Feature", "properties": { "osm_id": "way/376740368", "severidad": "roja", "building": "yes", "name": null, "amenity": null, "leisure": null, "tourism": null, "operator": null, "start_date": null, "area_total_m2": 257.9, "area_invadida_m2": 174.6, "pct_invadido": 67.7, "pct_invadido_buf": 100.0, "lat": 20.745217, "lon": -105.385059, "tags_json": { "building": "yes" } }, "geometry": { "type": "Polygon", "coordinates": [ [ [ -105.3851521, 20.7452712 ], [ -105.3850112, 20.7453089 ], [ -105.3849663, 20.745162 ], [ -105.3851072, 20.7451244 ], [ -105.3851521, 20.7452712 ] ] ] } },
{ "type": "Feature", "properties": { "osm_id": "way/376741874", "severidad": "ambar", "building": "yes", "name": null, "amenity": null, "leisure": null, "tourism": null, "operator": null, "start_date": null, "area_total_m2": 940.6, "area_invadida_m2": 123.3, "pct_invadido": 13.1, "pct_invadido_buf": 37.5, "lat": 20.740224, "lon": -105.391817, "tags_json": { "building": "yes" } }, "geometry": { "type": "Polygon", "coordinates": [ [ [ -105.3920381, 20.7401663 ], [ -105.3915952, 20.7400837 ], [ -105.3916346, 20.7402897 ], [ -105.3919894, 20.7403678 ], [ -105.3920381, 20.7401663 ] ] ] } },
{ "type": "Feature", "properties": { "osm_id": "way/376771103", "severidad": "ambar", "building": "residential", "name": null, "amenity": null, "leisure": null, "tourism": null, "operator": null, "start_date": null, "area_total_m2": 133.0, "area_invadida_m2": 53.0, "pct_invadido": 39.8, "pct_invadido_buf": 100.0, "lat": 20.761564, "lon": -105.352731, "tags_json": { "building": "residential" } }, "geometry": { "type": "Polygon", "coordinates": [ [ [ -105.3527558, 20.7616289 ], [ -105.3527134, 20.761625 ], [ -105.3526617, 20.7616203 ], [ -105.3526713, 20.761529 ], [ -105.3527619, 20.7615373 ], [ -105.3527676, 20.761482 ], [ -105.3528069, 20.7614856 ], [ -105.3527992, 20.7615596 ], [ -105.3527634, 20.7615564 ], [ -105.3527597, 20.7615919 ], [ -105.3527558, 20.7616289 ] ] ] } },
{ "type": "Feature", "properties": { "osm_id": "way/376771104", "severidad": "roja", "building": "residential", "name": null, "amenity": null, "leisure": null, "tourism": null, "operator": null, "start_date": null, "area_total_m2": 824.3, "area_invadida_m2": 558.3, "pct_invadido": 67.7, "pct_invadido_buf": 100.0, "lat": 20.761067, "lon": -105.350733, "tags_json": { "building": "residential" } }, "geometry": { "type": "Polygon", "coordinates": [ [ [ -105.350823100000014, 20.7612179 ], [ -105.3505762, 20.7611714 ], [ -105.350593, 20.7610933 ], [ -105.3505714, 20.7610892 ], [ -105.3505898, 20.761004 ], [ -105.3506127, 20.7610084 ], [ -105.3506321, 20.7609185 ], [ -105.3507246, 20.7609359 ], [ -105.3508138, 20.7609527 ], [ -105.3509012, 20.7609692 ], [ -105.3508762, 20.7610853 ], [ -105.3508598, 20.7611615 ], [ -105.3508362, 20.7611571 ], [ -105.350823100000014, 20.7612179 ] ] ] } },
{ "type": "Feature", "properties": { "osm_id": "way/376771109", "severidad": "ambar", "building": "residential", "name": null, "amenity": null, "leisure": null, "tourism": null, "operator": null, "start_date": null, "area_total_m2": 83.5, "area_invadida_m2": 11.0, "pct_invadido": 13.2, "pct_invadido_buf": 100.0, "lat": 20.761157, "lon": -105.351519, "tags_json": { "building": "residential" } }, "geometry": { "type": "Polygon", "coordinates": [ [ [ -105.3515559, 20.7612043 ], [ -105.3514652, 20.7611863 ], [ -105.3514826, 20.7611098 ], [ -105.3515733, 20.7611279 ], [ -105.3515559, 20.7612043 ] ] ] } },
{ "type": "Feature", "properties": { "osm_id": "way/376771113", "severidad": "ambar", "building": "residential", "name": null, "amenity": null, "leisure": null, "tourism": null, "operator": null, "start_date": null, "area_total_m2": 144.9, "area_invadida_m2": 21.1, "pct_invadido": 14.6, "pct_invadido_buf": 93.9, "lat": 20.761624, "lon": -105.350657, "tags_json": { "building": "residential" } }, "geometry": { "type": "Polygon", "coordinates": [ [ [ -105.3507124, 20.7616847 ], [ -105.3505759, 20.7616489 ], [ -105.3506015, 20.7615635 ], [ -105.350738, 20.7615992 ], [ -105.3507124, 20.7616847 ] ] ] } },
{ "type": "Feature", "properties": { "osm_id": "way/376771122", "severidad": "ambar", "building": "residential", "name": null, "amenity": null, "leisure": null, "tourism": null, "operator": null, "start_date": null, "area_total_m2": 119.7, "area_invadida_m2": 38.3, "pct_invadido": 32.0, "pct_invadido_buf": 100.0, "lat": 20.761214, "lon": -105.351713, "tags_json": { "building": "residential" } }, "geometry": { "type": "Polygon", "coordinates": [ [ [ -105.3517556, 20.7612715 ], [ -105.3516492, 20.761251 ], [ -105.3516699, 20.7611573 ], [ -105.3517762, 20.7611778 ], [ -105.3517556, 20.7612715 ] ] ] } },
{ "type": "Feature", "properties": { "osm_id": "way/376788576", "severidad": "roja", "building": "yes", "name": null, "amenity": null, "leisure": null, "tourism": null, "operator": null, "start_date": null, "area_total_m2": 77.4, "area_invadida_m2": 51.2, "pct_invadido": 66.1, "pct_invadido_buf": 100.0, "lat": 20.739298, "lon": -105.418434, "tags_json": { "building": "yes" } }, "geometry": { "type": "Polygon", "coordinates": [ [ [ -105.4184889, 20.7393213 ], [ -105.4184069, 20.7393478 ], [ -105.4183799, 20.7392746 ], [ -105.4184618, 20.7392481 ], [ -105.4184889, 20.7393213 ] ] ] } },
{ "type": "Feature", "properties": { "osm_id": "way/376788578", "severidad": "roja", "building": "yes", "name": null, "amenity": null, "leisure": null, "tourism": null, "operator": null, "start_date": null, "area_total_m2": 116.2, "area_invadida_m2": 110.0, "pct_invadido": 94.7, "pct_invadido_buf": 100.0, "lat": 20.73921, "lon": -105.418398, "tags_json": { "building": "yes" } }, "geometry": { "type": "Polygon", "coordinates": [ [ [ -105.4184712, 20.7392272 ], [ -105.4183547, 20.7392681 ], [ -105.4183242, 20.7391923 ], [ -105.4184406, 20.7391513 ], [ -105.4184712, 20.7392272 ] ] ] } },
{ "type": "Feature", "properties": { "osm_id": "way/376795584", "severidad": "roja", "building": "yes", "name": null, "amenity": null, "leisure": null, "tourism": null, "operator": null, "start_date": null, "area_total_m2": 309.9, "area_invadida_m2": 309.6, "pct_invadido": 99.9, "pct_invadido_buf": 100.0, "lat": 20.771434, "lon": -105.518723, "tags_json": { "building": "yes" } }, "geometry": { "type": "Polygon", "coordinates": [ [ [ -105.5185569, 20.7713979 ], [ -105.518839, 20.7713642 ], [ -105.5188633, 20.7715416 ], [ -105.5188254, 20.7715462 ], [ -105.5188111, 20.771441 ], [ -105.5187146, 20.7714525 ], [ -105.5187225, 20.7715107 ], [ -105.5186864, 20.771515 ], [ -105.5186785, 20.7714568 ], [ -105.5185668, 20.7714702 ], [ -105.5185569, 20.7713979 ] ] ] } },
{ "type": "Feature", "properties": { "osm_id": "way/376795585", "severidad": "roja", "building": "yes", "name": null, "amenity": null, "leisure": null, "tourism": null, "operator": null, "start_date": null, "area_total_m2": 164.5, "area_invadida_m2": 164.5, "pct_invadido": 100.0, "pct_invadido_buf": 100.0, "lat": 20.771329, "lon": -105.519538, "tags_json": { "building": "yes" } }, "geometry": { "type": "Polygon", "coordinates": [ [ [ -105.5195712, 20.7712712 ], [ -105.51954480000002, 20.7712637 ], [ -105.5195174, 20.7712661 ], [ -105.519493, 20.7712781 ], [ -105.5194754, 20.771298 ], [ -105.5194673, 20.7713226 ], [ -105.5194699, 20.7713483 ], [ -105.5194828, 20.771371 ], [ -105.519504, 20.7713875 ], [ -105.5195304, 20.771395 ], [ -105.5195578, 20.7713926 ], [ -105.5195822, 20.7713806 ], [ -105.5195997, 20.7713607 ], [ -105.5196079, 20.7713361 ], [ -105.5196053, 20.7713104 ], [ -105.5195924, 20.7712877 ], [ -105.5195712, 20.7712712 ] ] ] } },
{ "type": "Feature", "properties": { "osm_id": "way/376795589", "severidad": "roja", "building": "yes", "name": null, "amenity": null, "leisure": null, "tourism": null, "operator": null, "start_date": null, "area_total_m2": 74.5, "area_invadida_m2": 55.4, "pct_invadido": 74.4, "pct_invadido_buf": 100.0, "lat": 20.771508, "lon": -105.517683, "tags_json": { "building": "yes" } }, "geometry": { "type": "Polygon", "coordinates": [ [ [ -105.5176992, 20.7714421 ], [ -105.5177179, 20.7715676 ], [ -105.5176674, 20.7715742 ], [ -105.5176487, 20.7714486 ], [ -105.5176992, 20.7714421 ] ] ] } },
{ "type": "Feature", "properties": { "osm_id": "way/376795590", "severidad": "ambar", "building": "yes", "name": null, "amenity": null, "leisure": null, "tourism": null, "operator": null, "start_date": null, "area_total_m2": 360.2, "area_invadida_m2": 77.5, "pct_invadido": 21.5, "pct_invadido_buf": 90.8, "lat": 20.771685, "lon": -105.51677, "tags_json": { "building": "yes" } }, "geometry": { "type": "Polygon", "coordinates": [ [ [ -105.5166477, 20.7716164 ], [ -105.5169, 20.7716304 ], [ -105.5168922, 20.7717539 ], [ -105.5166399, 20.7717399 ], [ -105.5166477, 20.7716164 ] ] ] } },
{ "type": "Feature", "properties": { "osm_id": "way/376795593", "severidad": "roja", "building": "yes", "name": null, "amenity": null, "leisure": null, "tourism": null, "operator": null, "start_date": null, "area_total_m2": 212.6, "area_invadida_m2": 140.1, "pct_invadido": 65.9, "pct_invadido_buf": 100.0, "lat": 20.77131, "lon": -105.519341, "tags_json": { "building": "yes" } }, "geometry": { "type": "Polygon", "coordinates": [ [ [ -105.5194195, 20.7712445 ], [ -105.5194386, 20.7713459 ], [ -105.5192621, 20.771375 ], [ -105.519243, 20.7712736 ], [ -105.5194195, 20.7712445 ] ] ] } },
{ "type": "Feature", "properties": { "osm_id": "way/376795597", "severidad": "roja", "building": "yes", "name": null, "amenity": null, "leisure": null, "tourism": null, "operator": null, "start_date": null, "area_total_m2": 109.1, "area_invadida_m2": 109.1, "pct_invadido": 100.0, "pct_invadido_buf": 100.0, "lat": 20.771275, "lon": -105.519744, "tags_json": { "building": "yes" } }, "geometry": { "type": "Polygon", "coordinates": [ [ [ -105.5197874, 20.7712213 ], [ -105.5198097, 20.7713036 ], [ -105.519701500000011, 20.7713291 ], [ -105.5196793, 20.7712468 ], [ -105.5197874, 20.7712213 ] ] ] } },
{ "type": "Feature", "properties": { "osm_id": "way/376795600", "severidad": "roja", "building": "yes", "name": null, "amenity": null, "leisure": null, "tourism": null, "operator": null, "start_date": null, "area_total_m2": 54.0, "area_invadida_m2": 54.0, "pct_invadido": 100.0, "pct_invadido_buf": 100.0, "lat": 20.771488, "lon": -105.517281, "tags_json": { "building": "yes" } }, "geometry": { "type": "Polygon", "coordinates": [ [ [ -105.517258, 20.7715351 ], [ -105.5172543, 20.7714421 ], [ -105.5173046, 20.7714403 ], [ -105.5173084, 20.7715333 ], [ -105.517258, 20.7715351 ] ] ] } },
{ "type": "Feature", "properties": { "osm_id": "way/376795604", "severidad": "roja", "building": "yes", "name": null, "amenity": null, "leisure": null, "tourism": null, "operator": null, "start_date": null, "area_total_m2": 188.3, "area_invadida_m2": 188.3, "pct_invadido": 100.0, "pct_invadido_buf": 100.0, "lat": 20.771477, "lon": -105.518395, "tags_json": { "building": "yes" } }, "geometry": { "type": "Polygon", "coordinates": [ [ [ -105.5184711, 20.7715281 ], [ -105.5183381, 20.7715467 ], [ -105.5183189, 20.7714265 ], [ -105.5184519, 20.7714079 ], [ -105.5184711, 20.7715281 ] ] ] } },
{ "type": "Feature", "properties": { "osm_id": "way/376795607", "severidad": "roja", "building": "yes", "name": null, "amenity": null, "leisure": null, "tourism": null, "operator": null, "start_date": null, "area_total_m2": 161.4, "area_invadida_m2": 159.9, "pct_invadido": 99.1, "pct_invadido_buf": 100.0, "lat": 20.771529, "lon": -105.518598, "tags_json": { "building": "yes" } }, "geometry": { "type": "Polygon", "coordinates": [ [ [ -105.5186824, 20.7715653 ], [ -105.5185208, 20.7715781 ], [ -105.5185131, 20.771492 ], [ -105.5186746, 20.7714792 ], [ -105.5186824, 20.7715653 ] ] ] } },
{ "type": "Feature", "properties": { "osm_id": "way/376795612", "severidad": "roja", "building": "yes", "name": null, "amenity": null, "leisure": null, "tourism": null, "operator": null, "start_date": null, "area_total_m2": 102.7, "area_invadida_m2": 102.7, "pct_invadido": 100.0, "pct_invadido_buf": 100.0, "lat": 20.771463, "lon": -105.518058, "tags_json": { "building": "yes" } }, "geometry": { "type": "Polygon", "coordinates": [ [ [ -105.518102, 20.771413 ], [ -105.5181074, 20.7715084 ], [ -105.5180142, 20.771513 ], [ -105.5180087, 20.7714177 ], [ -105.518102, 20.771413 ] ] ] } },
{ "type": "Feature", "properties": { "osm_id": "way/376795615", "severidad": "roja", "building": "yes", "name": null, "amenity": null, "leisure": null, "tourism": null, "operator": null, "start_date": null, "area_total_m2": 259.9, "area_invadida_m2": 254.3, "pct_invadido": 97.8, "pct_invadido_buf": 100.0, "lat": 20.771473, "lon": -105.518988, "tags_json": { "building": "yes" } }, "geometry": { "type": "Polygon", "coordinates": [ [ [ -105.5191001, 20.7715083 ], [ -105.5189024, 20.771549 ], [ -105.5188743, 20.7714295 ], [ -105.5189429, 20.7714154 ], [ -105.5189521, 20.7714547 ], [ -105.5190028, 20.7714443 ], [ -105.5189939, 20.7714064 ], [ -105.5190723, 20.7713902 ], [ -105.5191001, 20.7715083 ] ] ] } },
{ "type": "Feature", "properties": { "osm_id": "way/376795616", "severidad": "ambar", "building": "yes", "name": null, "amenity": null, "leisure": null, "tourism": null, "operator": null, "start_date": null, "area_total_m2": 126.5, "area_invadida_m2": 25.7, "pct_invadido": 20.3, "pct_invadido_buf": 84.0, "lat": 20.772361, "lon": -105.512976, "tags_json": { "building": "yes" } }, "geometry": { "type": "Polygon", "coordinates": [ [ [ -105.5129076, 20.772316 ], [ -105.5130045, 20.7722893 ], [ -105.5130305, 20.7723717 ], [ -105.5129982, 20.7723806 ], [ -105.5130193, 20.7724475 ], [ -105.5129802, 20.7724583 ], [ -105.5129529, 20.7723717 ], [ -105.5129274, 20.7723788 ], [ -105.5129076, 20.772316 ] ] ] } },
{ "type": "Feature", "properties": { "osm_id": "way/376795617", "severidad": "roja", "building": "yes", "name": null, "amenity": null, "leisure": null, "tourism": null, "operator": null, "start_date": null, "area_total_m2": 302.1, "area_invadida_m2": 160.6, "pct_invadido": 53.2, "pct_invadido_buf": 99.8, "lat": 20.771156, "lon": -105.520102, "tags_json": { "building": "yes" } }, "geometry": { "type": "Polygon", "coordinates": [ [ [ -105.5202324, 20.7712003 ], [ -105.520043500000014, 20.771248 ], [ -105.5199945, 20.7710783 ], [ -105.5200935, 20.7710533 ], [ -105.5201204, 20.7711463 ], [ -105.5201632, 20.7711355 ], [ -105.5201586, 20.7711197 ], [ -105.5202057, 20.7711078 ], [ -105.5202324, 20.7712003 ] ] ] } },
{ "type": "Feature", "properties": { "osm_id": "way/376795618", "severidad": "ambar", "building": "yes", "name": null, "amenity": null, "leisure": null, "tourism": null, "operator": null, "start_date": null, "area_total_m2": 162.7, "area_invadida_m2": 75.2, "pct_invadido": 46.2, "pct_invadido_buf": 100.0, "lat": 20.771643, "lon": -105.515997, "tags_json": { "building": "yes" } }, "geometry": { "type": "Polygon", "coordinates": [ [ [ -105.5160523, 20.771714 ], [ -105.5159429, 20.7717105 ], [ -105.5159468, 20.7716029 ], [ -105.5159689, 20.7716036 ], [ -105.5159708, 20.771552 ], [ -105.5160316, 20.7715539 ], [ -105.5160286, 20.7716357 ], [ -105.516055100000017, 20.7716366 ], [ -105.5160523, 20.771714 ] ] ] } },
{ "type": "Feature", "properties": { "osm_id": "way/377051295", "severidad": "ambar", "building": "yes", "name": null, "amenity": null, "leisure": null, "tourism": null, "operator": null, "start_date": null, "area_total_m2": 872.9, "area_invadida_m2": 119.6, "pct_invadido": 13.7, "pct_invadido_buf": 43.8, "lat": 20.76516, "lon": -105.495099, "tags_json": { "building": "yes" } }, "geometry": { "type": "Polygon", "coordinates": [ [ [ -105.4952143, 20.7652829 ], [ -105.4952806, 20.7652478 ], [ -105.495285, 20.7650929 ], [ -105.4952033, 20.7650619 ], [ -105.4949691, 20.7650309 ], [ -105.4949205, 20.7650991 ], [ -105.4949272, 20.7652106 ], [ -105.4949691, 20.7652953 ], [ -105.4950332, 20.7652726 ], [ -105.4950685, 20.765256 ], [ -105.4951635, 20.7652643 ], [ -105.4952143, 20.7652829 ] ] ] } },
{ "type": "Feature", "properties": { "osm_id": "way/377056761", "severidad": "roja", "building": "yes", "name": null, "amenity": null, "leisure": null, "tourism": null, "operator": null, "start_date": null, "area_total_m2": 31.5, "area_invadida_m2": 31.5, "pct_invadido": 100.0, "pct_invadido_buf": 100.0, "lat": 20.782433, "lon": -105.51013, "tags_json": { "building": "yes" } }, "geometry": { "type": "Polygon", "coordinates": [ [ [ -105.5101555, 20.782459 ], [ -105.5101645, 20.782417 ], [ -105.510101600000013, 20.7824057 ], [ -105.5100986, 20.7824534 ], [ -105.5101555, 20.782459 ] ] ] } },
{ "type": "Feature", "properties": { "osm_id": "way/377097970", "severidad": "roja", "building": "yes", "name": null, "amenity": null, "leisure": null, "tourism": null, "operator": null, "start_date": null, "area_total_m2": 54.2, "area_invadida_m2": 34.5, "pct_invadido": 63.7, "pct_invadido_buf": 100.0, "lat": 20.777878, "lon": -105.532042, "tags_json": { "building": "yes" } }, "geometry": { "type": "Polygon", "coordinates": [ [ [ -105.5320879, 20.7778612 ], [ -105.5320502, 20.777926 ], [ -105.531996, 20.7778944 ], [ -105.5320337, 20.7778296 ], [ -105.5320879, 20.7778612 ] ] ] } },
{ "type": "Feature", "properties": { "osm_id": "way/377097971", "severidad": "ambar", "building": "yes", "name": null, "amenity": null, "leisure": null, "tourism": null, "operator": null, "start_date": null, "area_total_m2": 44.1, "area_invadida_m2": 0.2, "pct_invadido": 0.5, "pct_invadido_buf": 100.0, "lat": 20.777765, "lon": -105.532007, "tags_json": { "building": "yes" } }, "geometry": { "type": "Polygon", "coordinates": [ [ [ -105.5320494, 20.7777537 ], [ -105.5320262, 20.7778048 ], [ -105.53196410000001, 20.7777765 ], [ -105.5319874, 20.7777254 ], [ -105.5320494, 20.7777537 ] ] ] } },
{ "type": "Feature", "properties": { "osm_id": "way/377280055", "severidad": "roja", "building": "yes", "name": null, "amenity": null, "leisure": null, "tourism": null, "operator": null, "start_date": null, "area_total_m2": 245.9, "area_invadida_m2": 181.2, "pct_invadido": 73.7, "pct_invadido_buf": 100.0, "lat": 20.752002, "lon": -105.373578, "tags_json": { "building": "yes" } }, "geometry": { "type": "Polygon", "coordinates": [ [ [ -105.373682, 20.7520493 ], [ -105.3736108, 20.752086 ], [ -105.3736001, 20.752068 ], [ -105.373583, 20.7520768 ], [ -105.3735687, 20.7520527 ], [ -105.3735158, 20.75208 ], [ -105.3734928, 20.752041 ], [ -105.3735212, 20.7520263 ], [ -105.3734823, 20.7519604 ], [ -105.373595, 20.7519022 ], [ -105.373682, 20.7520493 ] ] ] } },
{ "type": "Feature", "properties": { "osm_id": "way/377280074", "severidad": "ambar", "building": "yes", "name": null, "amenity": null, "leisure": null, "tourism": null, "operator": null, "start_date": null, "area_total_m2": 289.3, "area_invadida_m2": 87.1, "pct_invadido": 30.1, "pct_invadido_buf": 98.5, "lat": 20.752202, "lon": -105.373576, "tags_json": { "building": "yes" } }, "geometry": { "type": "Polygon", "coordinates": [ [ [ -105.3735327, 20.7523347 ], [ -105.3736344, 20.7522821 ], [ -105.3735931, 20.7522123 ], [ -105.3736805, 20.7521671 ], [ -105.3736302, 20.752082 ], [ -105.3734953, 20.7521532 ], [ -105.3734893, 20.7522151 ], [ -105.3735014, 20.7522071 ], [ -105.3735159, 20.7521996 ], [ -105.3735381, 20.752237 ], [ -105.373499, 20.7522572 ], [ -105.3735229, 20.7522976 ], [ -105.3735136, 20.7523024 ], [ -105.3735327, 20.7523347 ] ] ] } },
{ "type": "Feature", "properties": { "osm_id": "way/377280107", "severidad": "roja", "building": "yes", "name": null, "amenity": null, "leisure": null, "tourism": null, "operator": null, "start_date": null, "area_total_m2": 61.9, "area_invadida_m2": 61.9, "pct_invadido": 100.0, "pct_invadido_buf": 100.0, "lat": 20.751859, "lon": -105.373583, "tags_json": { "building": "yes" } }, "geometry": { "type": "Polygon", "coordinates": [ [ [ -105.3736235, 20.7518922 ], [ -105.3736236, 20.751826 ], [ -105.3735426, 20.7518258 ], [ -105.373542400000019, 20.7518921 ], [ -105.3736235, 20.7518922 ] ] ] } },
{ "type": "Feature", "properties": { "osm_id": "way/377280110", "severidad": "roja", "building": "yes", "name": null, "amenity": null, "leisure": null, "tourism": null, "operator": null, "start_date": null, "area_total_m2": 144.8, "area_invadida_m2": 126.6, "pct_invadido": 87.4, "pct_invadido_buf": 100.0, "lat": 20.75176, "lon": -105.373594, "tags_json": { "building": "yes" } }, "geometry": { "type": "Polygon", "coordinates": [ [ [ -105.3735028, 20.7517507 ], [ -105.3735463, 20.7516865 ], [ -105.373686, 20.7517692 ], [ -105.3736426, 20.7518334 ], [ -105.3735028, 20.7517507 ] ] ] } },
{ "type": "Feature", "properties": { "osm_id": "way/377282223", "severidad": "roja", "building": "yes", "name": null, "amenity": null, "leisure": null, "tourism": null, "operator": null, "start_date": null, "area_total_m2": 114.7, "area_invadida_m2": 89.7, "pct_invadido": 78.2, "pct_invadido_buf": 100.0, "lat": 20.751464, "lon": -105.373352, "tags_json": { "building": "yes" } }, "geometry": { "type": "Polygon", "coordinates": [ [ [ -105.3734365, 20.7514939 ], [ -105.3734208, 20.7514326 ], [ -105.37337, 20.751444 ], [ -105.3733635, 20.7514188 ], [ -105.3732565, 20.7514428 ], [ -105.3732668, 20.7514827 ], [ -105.3733049, 20.7514741 ], [ -105.3733105, 20.7514961 ], [ -105.3733582, 20.7514854 ], [ -105.3733646, 20.7515101 ], [ -105.3734365, 20.7514939 ] ] ] } },
{ "type": "Feature", "properties": { "osm_id": "way/377291593", "severidad": "ambar", "building": "yes", "name": null, "amenity": null, "leisure": null, "tourism": null, "operator": null, "start_date": null, "area_total_m2": 128.9, "area_invadida_m2": 49.8, "pct_invadido": 38.6, "pct_invadido_buf": 95.4, "lat": 20.751775, "lon": -105.373177, "tags_json": { "building": "yes" } }, "geometry": { "type": "Polygon", "coordinates": [ [ [ -105.3731979, 20.7518738 ], [ -105.3731569, 20.7518502 ], [ -105.373198800000011, 20.7517867 ], [ -105.3731745, 20.7517727 ], [ -105.3731487, 20.7517578 ], [ -105.3731295, 20.751787 ], [ -105.37309230000001, 20.7517655 ], [ -105.3731389, 20.7516949 ], [ -105.3732451, 20.7517562 ], [ -105.3732182, 20.751797 ], [ -105.373240200000012, 20.7518097 ], [ -105.3731979, 20.7518738 ] ] ] } },
{ "type": "Feature", "properties": { "osm_id": "way/377291603", "severidad": "ambar", "building": "yes", "name": null, "amenity": null, "leisure": null, "tourism": null, "operator": null, "start_date": null, "area_total_m2": 259.4, "area_invadida_m2": 65.8, "pct_invadido": 25.4, "pct_invadido_buf": 91.4, "lat": 20.751619, "lon": -105.373251, "tags_json": { "building": "yes" } }, "geometry": { "type": "Polygon", "coordinates": [ [ [ -105.3732425, 20.7517471 ], [ -105.3731984, 20.7517174 ], [ -105.3732209, 20.7516882 ], [ -105.3731381, 20.7516324 ], [ -105.3731962, 20.7515571 ], [ -105.373248, 20.751592 ], [ -105.3732679, 20.7515662 ], [ -105.3732533, 20.7515564 ], [ -105.3732956, 20.7515016 ], [ -105.3733506, 20.7515387 ], [ -105.373311, 20.75159 ], [ -105.373346700000013, 20.7516141 ], [ -105.3733161, 20.7516537 ], [ -105.373294, 20.7516388 ], [ -105.3732522, 20.7516929 ], [ -105.3732733, 20.7517072 ], [ -105.3732425, 20.7517471 ] ] ] } },
{ "type": "Feature", "properties": { "osm_id": "way/377291666", "severidad": "roja", "building": "yes", "name": null, "amenity": null, "leisure": null, "tourism": null, "operator": null, "start_date": null, "area_total_m2": 164.9, "area_invadida_m2": 151.6, "pct_invadido": 91.9, "pct_invadido_buf": 100.0, "lat": 20.751343, "lon": -105.37207, "tags_json": { "building": "yes" } }, "geometry": { "type": "Polygon", "coordinates": [ [ [ -105.3721596, 20.7513551 ], [ -105.3721121, 20.7513619 ], [ -105.3721143, 20.7513755 ], [ -105.37206, 20.7513833 ], [ -105.3720646, 20.7514113 ], [ -105.3720118, 20.7514188 ], [ -105.3719933, 20.7513058 ], [ -105.3721478, 20.7512836 ], [ -105.3721596, 20.7513551 ] ] ] } },
{ "type": "Feature", "properties": { "osm_id": "way/377307216", "severidad": "ambar", "building": "yes", "name": null, "amenity": null, "leisure": null, "tourism": null, "operator": null, "start_date": null, "area_total_m2": 432.3, "area_invadida_m2": 205.3, "pct_invadido": 47.5, "pct_invadido_buf": 85.6, "lat": 20.754141, "lon": -105.338597, "tags_json": { "building": "yes" } }, "geometry": { "type": "Polygon", "coordinates": [ [ [ -105.3385501, 20.7542975 ], [ -105.3386153, 20.7541886 ], [ -105.3386759, 20.7542203 ], [ -105.3387423, 20.7541092 ], [ -105.3385523, 20.7540097 ], [ -105.338475300000013, 20.7541385 ], [ -105.338548, 20.7541765 ], [ -105.338493400000019, 20.7542678 ], [ -105.3385501, 20.7542975 ] ] ] } },
{ "type": "Feature", "properties": { "osm_id": "way/377392917", "severidad": "ambar", "building": "yes", "name": null, "amenity": null, "leisure": null, "tourism": null, "operator": null, "start_date": null, "area_total_m2": 62.9, "area_invadida_m2": 0.0, "pct_invadido": 0.0, "pct_invadido_buf": 99.5, "lat": 20.749331, "lon": -105.439446, "tags_json": { "building": "yes" } }, "geometry": { "type": "Polygon", "coordinates": [ [ [ -105.439409, 20.7493692 ], [ -105.4394167, 20.7492867 ], [ -105.439482400000017, 20.7492921 ], [ -105.4394747, 20.7493745 ], [ -105.439409, 20.7493692 ] ] ] } },
{ "type": "Feature", "properties": { "osm_id": "way/377392920", "severidad": "roja", "building": "yes", "name": null, "amenity": null, "leisure": null, "tourism": null, "operator": null, "start_date": null, "area_total_m2": 98.1, "area_invadida_m2": 82.5, "pct_invadido": 84.1, "pct_invadido_buf": 100.0, "lat": 20.749275, "lon": -105.440375, "tags_json": { "building": "yes" } }, "geometry": { "type": "Polygon", "coordinates": [ [ [ -105.4403138, 20.7493111 ], [ -105.4403122, 20.7492421 ], [ -105.4404355, 20.7492397 ], [ -105.4404371, 20.7493087 ], [ -105.4403138, 20.7493111 ] ] ] } },
{ "type": "Feature", "properties": { "osm_id": "way/377392921", "severidad": "roja", "building": "yes", "name": null, "amenity": null, "leisure": null, "tourism": null, "operator": null, "start_date": null, "area_total_m2": 56.2, "area_invadida_m2": 56.2, "pct_invadido": 100.0, "pct_invadido_buf": 100.0, "lat": 20.749191, "lon": -105.440199, "tags_json": { "building": "yes" } }, "geometry": { "type": "Polygon", "coordinates": [ [ [ -105.4402472, 20.7491756 ], [ -105.4402207, 20.7492345 ], [ -105.4401503, 20.7492068 ], [ -105.440176800000017, 20.7491479 ], [ -105.4402472, 20.7491756 ] ] ] } },
{ "type": "Feature", "properties": { "osm_id": "way/377538428", "severidad": "roja", "building": "yes", "name": null, "amenity": null, "leisure": null, "tourism": null, "operator": null, "start_date": null, "area_total_m2": 378.5, "area_invadida_m2": 361.1, "pct_invadido": 95.4, "pct_invadido_buf": 100.0, "lat": 20.755691, "lon": -105.370253, "tags_json": { "building": "yes" } }, "geometry": { "type": "Polygon", "coordinates": [ [ [ -105.3702677, 20.7558146 ], [ -105.3701239, 20.7557237 ], [ -105.3702373, 20.7555669 ], [ -105.3703811, 20.7556578 ], [ -105.3702677, 20.7558146 ] ] ] } },
{ "type": "Feature", "properties": { "osm_id": "way/379406898", "severidad": "ambar", "building": "yes", "name": null, "amenity": null, "leisure": null, "tourism": null, "operator": null, "start_date": null, "area_total_m2": 103.7, "area_invadida_m2": 12.7, "pct_invadido": 12.2, "pct_invadido_buf": 70.1, "lat": 20.755676, "lon": -105.339046, "tags_json": { "building": "yes" } }, "geometry": { "type": "Polygon", "coordinates": [ [ [ -105.3391511, 20.7556457 ], [ -105.3391298, 20.7556091 ], [ -105.3389402, 20.7557062 ], [ -105.3389615, 20.7557427 ], [ -105.3391511, 20.7556457 ] ] ] } },
{ "type": "Feature", "properties": { "osm_id": "way/379406901", "severidad": "ambar", "building": "yes", "name": null, "amenity": null, "leisure": null, "tourism": null, "operator": null, "start_date": null, "area_total_m2": 118.9, "area_invadida_m2": 22.7, "pct_invadido": 19.1, "pct_invadido_buf": 100.0, "lat": 20.755584, "lon": -105.339026, "tags_json": { "building": "yes" } }, "geometry": { "type": "Polygon", "coordinates": [ [ [ -105.339011, 20.7555247 ], [ -105.3391177, 20.7555979 ], [ -105.339012, 20.7556473 ], [ -105.338949, 20.7555523 ], [ -105.339011, 20.7555247 ] ] ] } },
{ "type": "Feature", "properties": { "osm_id": "way/379406903", "severidad": "roja", "building": "yes", "name": null, "amenity": null, "leisure": null, "tourism": null, "operator": null, "start_date": null, "area_total_m2": 85.2, "area_invadida_m2": 85.2, "pct_invadido": 100.0, "pct_invadido_buf": 100.0, "lat": 20.755532, "lon": -105.339109, "tags_json": { "building": "yes" } }, "geometry": { "type": "Polygon", "coordinates": [ [ [ -105.3391105, 20.7554751 ], [ -105.3390366, 20.7555226 ], [ -105.3391244, 20.755586 ], [ -105.3391737, 20.7555529 ], [ -105.3391105, 20.7554751 ] ] ] } },
{ "type": "Feature", "properties": { "osm_id": "way/379406909", "severidad": "roja", "building": "yes", "name": null, "amenity": null, "leisure": null, "tourism": null, "operator": null, "start_date": null, "area_total_m2": 95.9, "area_invadida_m2": 94.7, "pct_invadido": 98.7, "pct_invadido_buf": 100.0, "lat": 20.755287, "lon": -105.339796, "tags_json": { "building": "yes" } }, "geometry": { "type": "Polygon", "coordinates": [ [ [ -105.3397324, 20.7552419 ], [ -105.3397205, 20.7552946 ], [ -105.3397965, 20.7553096 ], [ -105.3397924, 20.755328 ], [ -105.3398481, 20.755339 ], [ -105.3398642, 20.7552679 ], [ -105.3397324, 20.7552419 ] ] ] } },
{ "type": "Feature", "properties": { "osm_id": "way/440074653", "severidad": "ambar", "building": "yes", "name": null, "amenity": null, "leisure": null, "tourism": null, "operator": null, "start_date": null, "area_total_m2": 48.4, "area_invadida_m2": 5.6, "pct_invadido": 11.6, "pct_invadido_buf": 100.0, "lat": 20.69757, "lon": -105.291788, "tags_json": { "building": "yes" } }, "geometry": { "type": "Polygon", "coordinates": [ [ [ -105.2917774, 20.6976156 ], [ -105.291836800000013, 20.6975609 ], [ -105.2917991, 20.697525 ], [ -105.2917396, 20.6975798 ], [ -105.2917774, 20.6976156 ] ] ] } },
{ "type": "Feature", "properties": { "osm_id": "way/440074654", "severidad": "roja", "building": "yes", "name": null, "amenity": null, "leisure": null, "tourism": null, "operator": null, "start_date": null, "area_total_m2": 35.7, "area_invadida_m2": 35.7, "pct_invadido": 100.0, "pct_invadido_buf": 100.0, "lat": 20.696969, "lon": -105.292114, "tags_json": { "building": "yes" } }, "geometry": { "type": "Polygon", "coordinates": [ [ [ -105.2921233, 20.6970102 ], [ -105.2920722, 20.6969513 ], [ -105.2921039, 20.6969272 ], [ -105.292155, 20.6969861 ], [ -105.2921233, 20.6970102 ] ] ] } },
{ "type": "Feature", "properties": { "osm_id": "way/1037202085", "severidad": "ambar", "building": "yes", "name": "Xiobella Luxury Hotel Boutique", "amenity": null, "leisure": null, "tourism": "hotel", "operator": null, "start_date": null, "area_total_m2": 804.2, "area_invadida_m2": 335.8, "pct_invadido": 41.8, "pct_invadido_buf": 69.7, "lat": 20.788624, "lon": -105.494717, "tags_json": { "building": "yes", "name": "Xiobella Luxury Hotel Boutique", "tourism": "hotel" } }, "geometry": { "type": "Polygon", "coordinates": [ [ [ -105.4948567, 20.7886138 ], [ -105.4948418, 20.7886233 ], [ -105.494712, 20.7884374 ], [ -105.4945291, 20.7885455 ], [ -105.4947143, 20.7888106 ], [ -105.4949123, 20.7886882 ], [ -105.4948567, 20.7886138 ] ] ] } }
]
}
