{
"type": "FeatureCollection",
"name": "top5_candidatos",
"crs": { "type": "name", "properties": { "name": "urn:ogc:def:crs:OGC:1.3:CRS84" } },
"features": [
{ "type": "Feature", "properties": { "osm_id": "way/376733443", "severidad": "roja", "building": "yes", "name": "Estrella", "area_total_m2": 829.8, "area_invadida_m2": 487.1, "pct_invadido": 58.7, "lat": 20.783118, "lon": -105.529548 }, "geometry": { "type": "Polygon", "coordinates": [ [ [ -105.5296493, 20.7829304 ], [ -105.5296332, 20.7833147 ], [ -105.5294483, 20.7833097 ], [ -105.5294628, 20.7829195 ], [ -105.5296493, 20.7829304 ] ] ] } },
{ "type": "Feature", "properties": { "osm_id": "way/359188604", "severidad": "roja", "building": "hotel", "name": "El Faro Real I (tower one)", "area_total_m2": 568.7, "area_invadida_m2": 409.3, "pct_invadido": 72.0, "lat": 20.772133, "lon": -105.514146 }, "geometry": { "type": "Polygon", "coordinates": [ [ [ -105.5139675, 20.772095 ], [ -105.514110100000011, 20.7720636 ], [ -105.5141459, 20.7720557 ], [ -105.5142885, 20.7720243 ], [ -105.5143252, 20.77217 ], [ -105.5141826, 20.7722014 ], [ -105.5141468, 20.7722093 ], [ -105.5140042, 20.7722407 ], [ -105.5139675, 20.772095 ] ] ] } },
{ "type": "Feature", "properties": { "osm_id": "way/376795584", "severidad": "roja", "building": "yes", "name": null, "area_total_m2": 309.9, "area_invadida_m2": 309.6, "pct_invadido": 99.9, "lat": 20.771434, "lon": -105.518723 }, "geometry": { "type": "Polygon", "coordinates": [ [ [ -105.5185569, 20.7713979 ], [ -105.518839, 20.7713642 ], [ -105.5188633, 20.7715416 ], [ -105.5188254, 20.7715462 ], [ -105.5188111, 20.771441 ], [ -105.5187146, 20.7714525 ], [ -105.5187225, 20.7715107 ], [ -105.5186864, 20.771515 ], [ -105.5186785, 20.7714568 ], [ -105.5185668, 20.7714702 ], [ -105.5185569, 20.7713979 ] ] ] } },
{ "type": "Feature", "properties": { "osm_id": "way/376701710", "severidad": "roja", "building": "yes", "name": null, "area_total_m2": 224.0, "area_invadida_m2": 150.3, "pct_invadido": 67.1, "lat": 20.787882, "lon": -105.496927 }, "geometry": { "type": "Polygon", "coordinates": [ [ [ -105.4969881, 20.7879599 ], [ -105.496859, 20.787955 ], [ -105.4968655, 20.7878046 ], [ -105.4969946, 20.7878095 ], [ -105.4969881, 20.7879599 ] ] ] } },
{ "type": "Feature", "properties": { "osm_id": "way/376701744", "severidad": "roja", "building": "yes", "name": null, "area_total_m2": 168.8, "area_invadida_m2": 129.8, "pct_invadido": 76.9, "lat": 20.758862, "lon": -105.484652 }, "geometry": { "type": "Polygon", "coordinates": [ [ [ -105.4846604, 20.7589528 ], [ -105.4845872, 20.7589173 ], [ -105.484616, 20.7588655 ], [ -105.4845864, 20.7588511 ], [ -105.4846283, 20.7587757 ], [ -105.4847311, 20.7588257 ], [ -105.4846604, 20.7589528 ] ] ] } }
]
}
