{
  "type": "FeatureCollection",
  "name": "candidatos_manuales",
  "description": "Construcciones trazadas a mano sobre Esri/Sentinel imagery que no están cartografiadas en OpenStreetMap. El script 13_update_candidatos.py las cruza con playa_libre_bb.geojson y calcula área invadida + severidad con la misma lógica que el detector OSM. Los polígonos son aproximados — afinarlos en JOSM/QGIS si se va a publicar.",
  "crs": { "type": "name", "properties": { "name": "urn:ogc:def:crs:OGC:1.3:CRS84" } },
  "features": [
    {
      "type": "Feature",
      "properties": {
        "manual_id": "manual-001",
        "name": "Edificación costera 1 — sin OSM",
        "building": "yes",
        "source": "trazo_manual_esri_z1730",
        "notes": "Construcción visible al SO de la captura (≈20.7372, -105.398), sobre la diagonal de zona federal. No está en OSM."
      },
      "geometry": {
        "type": "Polygon",
        "coordinates": [[
          [-105.39850, 20.73760],
          [-105.39750, 20.73760],
          [-105.39750, 20.73680],
          [-105.39850, 20.73680],
          [-105.39850, 20.73760]
        ]]
      }
    },
    {
      "type": "Feature",
      "properties": {
        "manual_id": "manual-002",
        "name": "Edificación costera 2 — sin OSM",
        "building": "yes",
        "source": "trazo_manual_esri_z1730",
        "notes": "Construcción a media captura (≈20.7392, -105.394) sobre la franja federal."
      },
      "geometry": {
        "type": "Polygon",
        "coordinates": [[
          [-105.39435, 20.73950],
          [-105.39365, 20.73950],
          [-105.39365, 20.73890],
          [-105.39435, 20.73890],
          [-105.39435, 20.73950]
        ]]
      }
    },
    {
      "type": "Feature",
      "properties": {
        "manual_id": "manual-003",
        "name": "Edificación costera 3 — sin OSM",
        "building": "yes",
        "source": "trazo_manual_esri_z1730",
        "notes": "Construcción al NE de la captura (≈20.7414, -105.390) sobre la franja federal."
      },
      "geometry": {
        "type": "Polygon",
        "coordinates": [[
          [-105.39030, 20.74130],
          [-105.38970, 20.74130],
          [-105.38970, 20.74070],
          [-105.39030, 20.74070],
          [-105.39030, 20.74130]
        ]]
      }
    },
    {
      "type": "Feature",
      "properties": {
        "manual_id": "manual-004",
        "name": "Punta de Mita — construcción curva sobre franja",
        "building": "yes",
        "source": "marca_usuario_z1793",
        "notes": "Edificio curvo + linear marcado a mano por usuario en captura 2026-05-05. La franja oficial termina justo arriba; el polígono se extiende al norte para registrar la intersección."
      },
      "geometry": {
        "type": "Polygon",
        "coordinates": [[
          [-105.53400, 20.75820],
          [-105.53250, 20.75820],
          [-105.53250, 20.75760],
          [-105.53400, 20.75760],
          [-105.53400, 20.75820]
        ]]
      }
    },
    {
      "type": "Feature",
      "properties": {
        "manual_id": "manual-005",
        "name": "Costa NE — construcción frente a playa",
        "building": "yes",
        "source": "marca_usuario_z1816",
        "notes": "Construcción con alberca/deck sobre franja federal, marcada a mano por usuario en captura 2026-05-05."
      },
      "geometry": {
        "type": "Polygon",
        "coordinates": [[
          [-105.50240, 20.76820],
          [-105.50180, 20.76820],
          [-105.50180, 20.76760],
          [-105.50240, 20.76760],
          [-105.50240, 20.76820]
        ]]
      }
    },
    {
      "type": "Feature",
      "properties": {
        "manual_id": "manual-006",
        "name": "Costa central — construcción frente a playa",
        "building": "yes",
        "source": "marca_usuario_z1786",
        "notes": "Cluster de construcciones (con alberca) sobre franja federal. Marcado a mano por usuario en captura 2026-05-05 (#17.86/20.7555/-105.4663)."
      },
      "geometry": {
        "type": "Polygon",
        "coordinates": [[
          [-105.46700, 20.75650],
          [-105.46630, 20.75650],
          [-105.46630, 20.75580],
          [-105.46700, 20.75580],
          [-105.46700, 20.75650]
        ]]
      }
    }
  ]
}
